CCSDS_OEM_VERS = 1.0
CREATION_DATE  = 2017-05-11T11:20:44
ORIGINATOR     = GMAT USER

META_START
OBJECT_NAME          = MOPSSat_alt_35785_km_RAAN_90_137
OBJECT_ID            = SatId
CENTER_NAME          = Earth
REF_FRAME            = EME2000
TIME_SYSTEM          = UTC
START_TIME           = 2017-01-01T00:00:00.000
USEABLE_START_TIME   = 2017-01-01T00:00:00.000
USEABLE_STOP_TIME    = 2017-01-02T00:00:00.000
STOP_TIME            = 2017-01-02T00:00:00.000
INTERPOLATION        = Lagrange
INTERPOLATION_DEGREE = 7 
META_STOP


                                                                                   

2017-01-01T19:15:00.000   3.858599256616295e+04  -1.926059617584904e+04  -9.654269328426063e+00   1.572602039607138e-01   3.001080801682948e+00  -1.200905162199476e-04
2017-01-01T19:15:10.000   3.858755557744462e+04  -1.923058058358861e+04  -9.655468041427328e+00   1.553417753741191e-01   3.002037592197222e+00  -1.196520049442009e-04
2017-01-01T19:15:20.000   3.858909939602767e+04  -1.920055542716277e+04  -9.656662366863674e+00   1.534216668332150e-01   3.002993688233682e+00  -1.192130053133988e-04
2017-01-01T19:15:30.000   3.859062400511744e+04  -1.917052071328982e+04  -9.657852299858565e+00   1.514998768529730e-01   3.003949087972134e+00  -1.187735168476205e-04
2017-01-01T19:15:40.000   3.859212938790928e+04  -1.914047644862210e+04  -9.659037835534146e+00   1.495764039421300e-01   3.004903789590780e+00  -1.183335390653458e-04
2017-01-01T19:15:50.000   3.859361552756641e+04  -1.911042264013381e+04  -9.660218968995277e+00   1.476512466278692e-01   3.005857791253745e+00  -1.178930714890908e-04
2017-01-01T19:16:00.000   3.859508240723699e+04  -1.908035929483350e+04  -9.661395695341538e+00   1.457244034375674e-01   3.006811091120344e+00  -1.174521136412424e-04
2017-01-01T19:16:10.000   3.859653001005325e+04  -1.905028641976363e+04  -9.662568009666996e+00   1.437958728987050e-01   3.007763687345034e+00  -1.170106650440330e-04
2017-01-01T19:16:20.000   3.859795831911993e+04  -1.902020402229103e+04  -9.663735907049503e+00   1.418656535576355e-01   3.008715578068335e+00  -1.165687252238462e-04
2017-01-01T19:16:30.000   3.859936731753068e+04  -1.899011210971620e+04  -9.664899382565340e+00   1.399337439543999e-01   3.009666761429080e+00  -1.161262937054424e-04
2017-01-01T19:16:40.000   3.860075698836119e+04  -1.896001068943014e+04  -9.666058431283240e+00   1.380001426328133e-01   3.010617235559458e+00  -1.156833700142700e-04
2017-01-01T19:16:50.000   3.860212731470110e+04  -1.892989976822365e+04  -9.667213048291009e+00   1.360648480961070e-01   3.011566998606831e+00  -1.152399536663084e-04
2017-01-01T19:17:00.000   3.860347827962177e+04  -1.889977935297970e+04  -9.668363228668802e+00   1.341278588513894e-01   3.012516048711842e+00  -1.147960441782470e-04
2017-01-01T19:17:10.000   3.860480986618482e+04  -1.886964945049495e+04  -9.669508967496064e+00   1.321891733981894e-01   3.013464384014064e+00  -1.143516410648638e-04
2017-01-01T19:17:20.000   3.860612205741862e+04  -1.883951006795966e+04  -9.670650259832723e+00   1.302487902592247e-01   3.014412002636762e+00  -1.139067438460635e-04
2017-01-01T19:17:30.000   3.860741483633805e+04  -1.880936121256190e+04  -9.671787100734784e+00   1.283067079550479e-01   3.015358902699459e+00  -1.134613520410793e-04
2017-01-01T19:17:40.000   3.860868818593995e+04  -1.877920289157590e+04  -9.672919485250819e+00   1.263629250097002e-01   3.016305082315122e+00  -1.130154651697653e-04
2017-01-01T19:17:50.000   3.860994208920561e+04  -1.874903511233866e+04  -9.674047408423213e+00   1.244174399492917e-01   3.017250539590954e+00  -1.125690827522791e-04
2017-01-01T19:18:00.000   3.861117652910084e+04  -1.871885788221946e+04  -9.675170865289003e+00   1.224702512999630e-01   3.018195272629287e+00  -1.121222043086072e-04
2017-01-01T19:18:10.000   3.861239148857661e+04  -1.868867120860904e+04  -9.676289850880332e+00   1.205213575872012e-01   3.019139279527915e+00  -1.116748293584083e-04
2017-01-01T19:18:20.000   3.861358695057395e+04  -1.865847509881198e+04  -9.677404360228584e+00   1.185707573289298e-01   3.020082558383488e+00  -1.112269574194315e-04
2017-01-01T19:18:30.000   3.861476289802029e+04  -1.862826956011845e+04  -9.678514388361524e+00   1.166184490400876e-01   3.021025107289221e+00  -1.107785880085609e-04
2017-01-01T19:18:40.000   3.861591931382965e+04  -1.859805459980413e+04  -9.679619930303353e+00   1.146644312326473e-01   3.021966924334883e+00  -1.103297206418227e-04
2017-01-01T19:18:50.000   3.861705618090455e+04  -1.856783022505809e+04  -9.680720981077139e+00   1.127087024108948e-01   3.022908007609016e+00  -1.098803548332918e-04
2017-01-01T19:19:00.000   3.861817348213252e+04  -1.853759644309096e+04  -9.681817535701017e+00   1.107512610784687e-01   3.023848355195565e+00  -1.094304900967162e-04
2017-01-01T19:19:10.000   3.861927120038582e+04  -1.850735326114611e+04  -9.682909589187807e+00   1.087921057390847e-01   3.024787965173546e+00  -1.089801259456823e-04
2017-01-01T19:19:20.000   3.862034931851905e+04  -1.847710068652911e+04  -9.683997136543642e+00   1.068312348983805e-01   3.025726835616041e+00  -1.085292618940375e-04
2017-01-01T19:19:30.000   3.862140781936983e+04  -1.844683872663270e+04  -9.685080172767446e+00   1.048686470656169e-01   3.026664964589506e+00  -1.080778974562837e-04
2017-01-01T19:19:40.000   3.862244668576126e+04  -1.841656738884758e+04  -9.686158692853963e+00   1.029043407478567e-01   3.027602350156487e+00  -1.076260321462366e-04
2017-01-01T19:19:50.000   3.862346590049016e+04  -1.838628668096222e+04  -9.687232691779998e+00   1.009383144760198e-01   3.028538990363337e+00  -1.071736654830247e-04
2017-01-01T19:20:00.000   3.862446544634178e+04  -1.835599661067864e+04  -9.688302164521188e+00   9.897056677335575e-02   3.029474883255098e+00  -1.067207969838310e-04
2017-01-01T19:20:10.000   3.862544530608413e+04  -1.832569718579244e+04  -9.689367106045706e+00   9.700109616715263e-02   3.030410026869945e+00  -1.062674261665877e-04
2017-01-01T19:20:20.000   3.862640546249055e+04  -1.829538841349601e+04  -9.690427511338827e+00   9.502990114345918e-02   3.031344419260695e+00  -1.058135525395596e-04
2017-01-01T19:20:30.000   3.862734589831711e+04  -1.826507030107353e+04  -9.691483375378356e+00   9.305698019224003e-02   3.032278058473319e+00  -1.053591756117309e-04
2017-01-01T19:20:40.000   3.862826659630791e+04  -1.823474285574379e+04  -9.692534693140304e+00   9.108233179718105e-02   3.033210942551824e+00  -1.049042948904626e-04
2017-01-01T19:20:50.000   3.862916753918061e+04  -1.820440608505166e+04  -9.693581459584628e+00   8.910595446102745e-02   3.034143069526039e+00  -1.044489098873086e-04
2017-01-01T19:21:00.000   3.863004870963785e+04  -1.817405999657784e+04  -9.694623669665974e+00   8.712784668684602e-02   3.035074437420694e+00  -1.039930201137201e-04
2017-01-01T19:21:10.000   3.863091009036639e+04  -1.814370459793849e+04  -9.695661318333428e+00   8.514800697793364e-02   3.036005044255366e+00  -1.035366250810161e-04
2017-01-01T19:21:20.000   3.863175166403129e+04  -1.811333989707824e+04  -9.696694400521137e+00   8.316643385708629e-02   3.036934888035616e+00  -1.030797243048453e-04
2017-01-01T19:21:30.000   3.863257341328456e+04  -1.808296590187608e+04  -9.697722911161181e+00   8.118312584074446e-02   3.037863966764936e+00  -1.026223172992062e-04
2017-01-01T19:21:40.000   3.863337532076156e+04  -1.805258262030044e+04  -9.698746845178396e+00   7.919808144915401e-02   3.038792278440025e+00  -1.021644035787953e-04
2017-01-01T19:21:50.000   3.863415736909903e+04  -1.802219005972378e+04  -9.699766197513549e+00   7.721129916158651e-02   3.039719821071717e+00  -1.017059826486714e-04
2017-01-01T19:22:00.000   3.863491954091676e+04  -1.799178822760804e+04  -9.700780963100112e+00   7.522277746110942e-02   3.040646592664019e+00  -1.012470540145875e-04
2017-01-01T19:22:10.000   3.863566181882210e+04  -1.796137713134992e+04  -9.701791136869614e+00   7.323251482450181e-02   3.041572591218854e+00  -1.007876171806647e-04
2017-01-01T19:22:20.000   3.863638418539760e+04  -1.793095677867348e+04  -9.702796713737902e+00   7.124050974779267e-02   3.042497814723945e+00  -1.003276716552777e-04
2017-01-01T19:22:30.000   3.863708662321096e+04  -1.790052717733912e+04  -9.703797688615516e+00   6.924676072737514e-02   3.043422261161818e+00  -9.986721694670500e-05
2017-01-01T19:22:40.000   3.863776911481387e+04  -1.787008833514311e+04  -9.704794056407414e+00   6.725126625991470e-02   3.044345928509761e+00  -9.940625256310318e-05
2017-01-01T19:22:50.000   3.863843164273814e+04  -1.783964026021149e+04  -9.705785812004015e+00   6.525402486177069e-02   3.045268814731010e+00  -9.894477801700228e-05
2017-01-01T19:23:00.000   3.863907418950203e+04  -1.780918296060482e+04  -9.706772950293509e+00   6.325503504293714e-02   3.046190917786634e+00  -9.848279281927737e-05
2017-01-01T19:23:10.000   3.863969673760734e+04  -1.777871644447674e+04  -9.707755466156836e+00   6.125429531748057e-02   3.047112235630718e+00  -9.802029648156150e-05
2017-01-01T19:23:20.000   3.864029926955373e+04  -1.774824071937498e+04  -9.708733354490235e+00   5.925180415764223e-02   3.048032766231520e+00  -9.755728850563964e-05
2017-01-01T19:23:30.000   3.864088176782419e+04  -1.771775579294216e+04  -9.709706610182586e+00   5.724756003984406e-02   3.048952507550237e+00  -9.709376839407852e-05
2017-01-01T19:23:40.000   3.864144421488895e+04  -1.768726167273503e+04  -9.710675228121303e+00   5.524156143283548e-02   3.049871457546490e+00  -9.662973564748900e-05
2017-01-01T19:23:50.000   3.864198659319426e+04  -1.765675836671040e+04  -9.711639203176338e+00   5.323380682952955e-02   3.050789614163540e+00  -9.616518977187576e-05
2017-01-01T19:24:00.000   3.864250888517208e+04  -1.762624588282439e+04  -9.712598530213459e+00   5.122429472077091e-02   3.051706975340480e+00  -9.570013027258326e-05
